OBJECT_NAME,OBJECT_ID,EPOCH,MEAN_MOTION,ECCENTRICITY,INCLINATION,RA_OF_ASC_NODE,ARG_OF_PERICENTER,MEAN_ANOMALY,EPHEMERIS_TYPE,CLASSIFICATION_TYPE,NORAD_CAT_ID,ELEMENT_SET_NO,REV_AT_EPOCH,BSTAR,MEAN_MOTION_DOT,MEAN_MOTION_DDOT
ASTRO-H (HITOMI),2016-012A,2026-06-24T23:07:55.718976,15.10541885,.000974,31.0000,23.9627,331.2378,28.7723,0,U,41337,999,56846,.13226E-3,.2333E-4,0
HXMT (HUIYAN),2017-034A,2026-06-25T03:49:16.303872,15.18521096,.0031793,43.0127,138.6475,197.9472,162.0256,0,U,42758,999,49887,.20148E-3,.4045E-4,0
SAOCOM 1A,2018-076A,2026-06-25T04:04:31.702368,14.82153612,.0001592,97.8889,2.8025,79.8646,280.2746,0,U,43641,999,41728,.41888E-4,.281E-5,0
H-2A R/B,2018-084L,2026-06-25T03:47:02.311296,15.45439010,.0022598,98.8576,56.7902,13.3878,346.7961,0,U,43682,999,42235,.50332E-3,.24248E-3,0
SAOCOM 1B,2020-059A,2026-06-25T04:49:24.358368,14.82150084,.0001608,97.8892,1.9283,83.1999,276.9397,0,U,46265,999,31467,.30578E-4,.191E-5,0
CSS (TIANHE),2021-035A,2026-06-25T03:59:37.118976,15.61138163,.0007806,41.4688,273.4315,146.0045,214.1295,0,U,48274,999,29441,.30377E-3,.26175E-3,0
COSMOS 2550,2021-056A,2026-06-25T04:12:02.345760,15.33839211,.0008401,67.1436,75.7432,268.6540,91.3652,0,U,48865,999,27994,.16658E-3,.5294E-4,0
CZ-2C R/B,2022-058K,2026-06-25T01:06:32.323680,15.62365993,.0032028,50.1846,122.6086,300.1303,59.6498,0,U,52794,999,22687,.43742E-3,.40235E-3,0
CZ-2C R/B,2022-132E,2026-06-24T23:34:47.428032,15.72404603,.0014568,97.2898,183.3585,59.8735,300.3971,0,U,54039,999,20717,.5488E-3,.73629E-3,0
GSLV R/B,2022-138AN,2026-06-24T22:29:41.399808,14.97287753,.0023799,87.3805,130.3815,117.8420,242.5227,0,U,54149,999,19997,.24212E-3,.285E-4,0
XRISM,2023-137A,2026-06-23T18:57:39.807648,15.12515318,.00078456,31.0028,316.8302,30.1498,329.9592,0,U,57800,999,15386,.20168132E-3,.37E-4,0
ACS3,2024-077B,2026-06-25T04:05:54.915936,13.94555433,.00921,97.1687,93.1831,58.4243,302.5874,0,U,59588,999,10915,.14726E-1,.2039E-3,0
CZ-8A R/B,2025-231K,2026-06-24T22:44:50.479008,14.30156860,.0116482,50.0055,6.2989,251.3174,107.5068,0,U,66004,999,3605,.42951E-4,-.43E-6,0
SZ-21 MODULE,2025-246C,2026-06-23T14:43:12.019584,15.76903759,.00053434,41.4723,267.2876,38.8723,321.2505,0,U,66515,999,3475,.22797097E-3,.37843E-3,0
